NORAD_CAT_ID,OBJECT_NAME,OBJECT_TYPE,EPOCH,MEAN_MOTION,ECCENTRICITY,INCLINATION,RA_OF_ASC_NODE,ARG_OF_PERICENTER,MEAN_ANOMALY,BSTAR,MEAN_MOTION_DOT,MEAN_MOTION_DDOT,TLE_LINE0,TLE_LINE1,TLE_LINE2,SEMIMAJOR_AXIS,PERIOD,APOGEE,PERIGEE,DECAYED
52003.0,STARLINK-3654,PAYLOAD,2022-12-16 11:33:05,15.08849005,0.0002231,53.2181,272.801,35.3104,324.8035,0.00028682,4.281e-05,0.0,0 STARLINK-3654,1 52003U 22025AZ  22350.48131692  .00004281  00000-0  28682-3 0  9991,2 52003  53.2181 272.8010 0002231  35.3104 324.8035 15.08849005 42906,6917.853,95.437,541.261,538.174,0.0
52003.0,STARLINK-3654,PAYLOAD,2022-12-16 19:30:01,15.08849416,0.0002238,53.218,271.3139,36.0929,324.0214,0.00030241,4.529e-05,0.0,0 STARLINK-3654,1 52003U 22025AZ  22350.81251541  .00004529  00000-0  30241-3 0  9993,2 52003  53.2180 271.3139 0002238  36.0929 324.0214 15.08849416 42953,6917.852,95.437,541.265,538.168,0.0
52003.0,STARLINK-3654,PAYLOAD,2022-12-17 03:26:57,15.08843841,0.0002244,53.218,269.8281,38.3516,321.7636,0.00017396,2.482e-05,0.0,0 STARLINK-3654,1 52003U 22025AZ  22351.14371743  .00002482  00000-0  17396-3 0  9999,2 52003  53.2180 269.8281 0002244  38.3516 321.7636 15.08843841 44519,6917.869000000002,95.437,541.286,538.181,0.0
52003.0,STARLINK-3654,PAYLOAD,2022-12-17 11:23:53,15.08837086,0.0002207,53.2186,268.3422,38.0863,322.0285,0.00010261,1.345e-05,0.0,0 STARLINK-3654,1 52003U 22025AZ  22351.47492194  .00001345  00000-0  10261-3 0  9990,2 52003  53.2186 268.3422 0002207  38.0863 322.0285 15.08837086 43053,6917.889,95.438,541.281,538.2280000000002,0.0
52003.0,STARLINK-3654,PAYLOAD,2022-12-18 11:14:40,15.08839982,0.0002319,53.2194,263.8802,37.0819,323.0333,-1.8586e-05,-5.84e-06,0.0,0 STARLINK-3654,1 52003U 22025AZ  22352.46852500 -.00000584  00000-0 -18586-4 0  9996,2 52003  53.2194 263.8802 0002319  37.0819 323.0333 15.08839982 43207,6917.88,95.438,541.35,538.141,0.0
52003.0,STARLINK-3654,PAYLOAD,2022-12-18 12:50:03,15.08839627,0.0002195,53.2186,263.5836,38.0337,322.0809,-1.5756e-05,-5.39e-06,0.0,0 STARLINK-3654,1 52003U 22025AZ  22352.53476418 -.00000539  00000-0 -15756-4 0  9990,2 52003  53.2186 263.5836 0002195  38.0337 322.0809 15.08839627 44721,6917.882,95.438,541.265,538.2280000000002,0.0
52003.0,STARLINK-3654,PAYLOAD,2022-12-18 23:57:45,15.08834642,0.0002195,53.2188,261.5022,35.9552,324.1588,-3.77e-06,-3.48e-06,0.0,0 STARLINK-3654,1 52003U 22025AZ  22352.99844866 -.00000348  00000-0 -37700-5 0  9998,2 52003  53.2188 261.5022 0002195  35.9552 324.1588 15.08834642 43282,6917.897,95.438,541.28,538.243,0.0
52003.0,STARLINK-3654,PAYLOAD,2022-12-20 01:23:54,15.08854876,0.0002242,53.2186,256.7446,37.3798,322.735,0.00026099,3.87e-05,0.0,0 STARLINK-3654,1 52003U 22025AZ  22354.05827229  .00003870  00000-0  26099-3 0  9999,2 52003  53.2186 256.7446 0002242  37.3798 322.7350 15.08854876 44954,6917.835,95.437,541.251,538.149,0.0
52003.0,STARLINK-3654,PAYLOAD,2022-12-20 17:17:46,15.08852883,0.0002265,53.2187,253.7714,38.2833,321.832,0.00023297,3.423e-05,0.0,0 STARLINK-3654,1 52003U 22025AZ  22354.72067137  .00003423  00000-0  23297-3 0  9998,2 52003  53.2187 253.7714 0002265  38.2833 321.8320 15.08852883 45050,6917.840999999999,95.437,541.273,538.139,0.0
52003.0,STARLINK-3654,PAYLOAD,2022-12-20 23:39:19,15.08836433,0.0002096,53.2181,252.5811,30.9004,329.2111,-1.1161e-05,-4.66e-06,0.0,0 STARLINK-3654,1 52003U 22025AZ  22354.98564067 -.00000466  00000-0 -11161-4 0  9994,2 52003  53.2181 252.5811 0002096  30.9004 329.2111 15.08836433 45097,6917.891,95.438,541.206,538.306,0.0
52003.0,STARLINK-3654,PAYLOAD,2022-12-21 12:22:25,15.0882646,0.0002579,53.2173,250.2047,27.4849,332.6279,-3.5721e-05,-8.57e-06,0.0,0 STARLINK-3654,1 52003U 22025AZ  22355.51557676 -.00000857  00000-0 -35721-4 0  9994,2 52003  53.2173 250.2047 0002579  27.4849 332.6279 15.08826460 43661,6917.922,95.438,541.571,538.003,0.0
52003.0,STARLINK-3654,PAYLOAD,2022-12-22 02:40:53,15.08845879,0.0002294,53.2173,247.5264,39.6304,320.4855,-7.6704e-05,-1.509e-05,0.0,0 STARLINK-3654,1 52003U 22025AZ  22356.11172635 -.00001509  00000-0 -76704-4 0  9990,2 52003  53.2173 247.5264 0002294  39.6304 320.4855 15.08845879 45264,6917.861999999999,95.437,541.314,538.14,0.0
52003.0,STARLINK-3654,PAYLOAD,2022-12-22 12:13:12,15.0882894,0.0002241,53.2159,245.7414,43.7602,316.3568,-0.00010926,-2.026e-05,0.0,0 STARLINK-3654,1 52003U 22025AZ  22356.50917406 -.00002026  00000-0 -10926-3 0  9994,2 52003  53.2159 245.7414 0002241  43.7602 316.3568 15.08828940 43818,6917.9140000000025,95.438,541.3290000000002,538.229,0.0
52003.0,STARLINK-3654,PAYLOAD,2022-12-22 18:34:45,15.08823576,0.0002496,53.2168,244.5535,30.8127,329.3011,4.6442e-05,4.51e-06,0.0,0 STARLINK-3654,1 52003U 22025AZ  22356.77414037  .00000451  00000-0  46442-4 0  9996,2 52003  53.2168 244.5535 0002496  30.8127 329.3011 15.08823576 43851,6917.931,95.439,541.5219999999998,538.069,0.0
52003.0,STARLINK-3654,PAYLOAD,2022-12-23 02:31:41,15.08830387,0.0002453,53.2167,243.0664,33.6765,326.4382,0.0001068,1.411e-05,0.0,0 STARLINK-3654,1 52003U 22025AZ  22357.10533809  .00001411  00000-0  10680-3 0  9994,2 52003  53.2167 243.0664 0002453  33.6765 326.4382 15.08830387 45410,6917.91,95.438,541.472,538.078,0.0
52003.0,STARLINK-3654,PAYLOAD,2022-12-23 12:04:00,15.08832148,0.000229,53.2167,241.2825,42.7696,317.3474,0.00019854,2.872e-05,0.0,0 STARLINK-3654,1 52003U 22025AZ  22357.50277804  .00002872  00000-0  19854-3 0  9992,2 52003  53.2167 241.2825 0002290  42.7696 317.3474 15.08832148 43968,6917.904,95.438,541.354,538.185,0.0
52003.0,STARLINK-3654,PAYLOAD,2022-12-23 18:25:32,15.08842157,0.0002331,53.2158,240.0932,43.9786,316.1392,0.00033657,5.073e-05,0.0,0 STARLINK-3654,1 52003U 22025AZ  22357.76773831  .00005073  00000-0  33657-3 0  9994,2 52003  53.2158 240.0932 0002331  43.9786 316.1392 15.08842157 44006,6917.874,95.437,541.351,538.126,0.0
52003.0,STARLINK-3654,PAYLOAD,2022-12-24 02:22:27,15.08851937,0.0002308,53.2156,238.6056,46.1483,313.97,0.00038731,5.883e-05,0.0,0 STARLINK-3654,1 52003U 22025AZ  22358.09893353  .00005883  00000-0  38731-3 0  9990,2 52003  53.2156 238.6056 0002308  46.1483 313.9700 15.08851937 45563,6917.844,95.437,541.306,538.112,0.0
52003.0,STARLINK-3654,PAYLOAD,2022-12-24 08:44:00,15.08849738,0.0002261,53.2159,237.4169,45.2992,314.8184,0.00029999,4.491e-05,0.0,0 STARLINK-3654,1 52003U 22025AZ  22358.36389401  .00004491  00000-0  29999-3 0  9994,2 52003  53.2159 237.4169 0002261  45.2992 314.8184 15.08849738 44090,6917.851,95.437,541.28,538.151,0.0
52003.0,STARLINK-3654,PAYLOAD,2022-12-24 19:51:42,15.08843012,0.0002297,53.2151,235.3343,47.166,312.9525,0.00012379,1.683e-05,0.0,0 STARLINK-3654,1 52003U 22025AZ  22358.82757590  .00001683  00000-0  12379-3 0  9997,2 52003  53.2151 235.3343 0002297  47.1660 312.9525 15.08843012 44160,6917.871,95.437,541.325,538.1469999999998,0.0
52003.0,STARLINK-3654,PAYLOAD,2022-12-24 23:02:28,15.08839239,0.0002285,53.2154,234.7396,45.8336,314.2844,1.6216e-05,-3e-07,0.0,0 STARLINK-3654,1 52003U 22025AZ  22358.96005690 -.00000030  00000-0  16216-4 0  9990,2 52003  53.2154 234.7396 0002285  45.8336 314.2844 15.08839239 45690,6917.8830000000025,95.438,541.328,538.1669999999998,0.0
52003.0,STARLINK-3654,PAYLOAD,2022-12-25 11:45:33,15.08845539,0.0002238,53.2154,232.3602,47.8006,312.3176,5.1703e-05,5.35e-06,0.0,0 STARLINK-3654,1 52003U 22025AZ  22359.48997247  .00000535  00000-0  51703-4 0  9995,2 52003  53.2154 232.3602 0002238  47.8006 312.3176 15.08845539 44267,6917.863,95.437,541.2769999999998,538.18,0.0
52003.0,STARLINK-3654,PAYLOAD,2022-12-25 19:42:29,15.08835987,0.0002024,53.2156,230.8742,48.6913,311.4253,-0.00013856,-2.493e-05,0.0,0 STARLINK-3654,1 52003U 22025AZ  22359.82117608 -.00002493  00000-0 -13856-3 0  9991,2 52003  53.2156 230.8742 0002024  48.6913 311.4253 15.08835987 44314,6917.893,95.438,541.158,538.357,0.0
52003.0,STARLINK-3654,PAYLOAD,2022-12-26 02:04:02,15.08838268,0.000214,53.2168,229.6845,46.8809,313.2361,-6.7919e-05,-1.369e-05,0.0,0 STARLINK-3654,1 52003U 22025AZ  22360.08614154 -.00001369  00000-0 -67919-4 0  9990,2 52003  53.2168 229.6845 0002140  46.8809 313.2361 15.08838268 45866,6917.886,95.438,541.231,538.27,0.0
52003.0,STARLINK-3654,PAYLOAD,2022-12-26 08:25:34,15.08842301,0.0002145,53.2168,228.4953,46.3878,313.7291,-2.7151e-05,-7.200000000000001e-06,0.0,0 STARLINK-3654,1 52003U 22025AZ  22360.35109841 -.00000720  00000-0 -27151-4 0  9996,2 52003  53.2168 228.4953 0002145  46.3878 313.7291 15.08842301 44396,6917.873000000001,95.437,541.222,538.254,0.0
52003.0,STARLINK-3654,PAYLOAD,2022-12-26 16:22:30,15.08838466,0.0002073,53.2169,227.0081,45.1361,314.9799,4.9755e-05,5.04e-06,0.0,0 STARLINK-3654,1 52003U 22025AZ  22360.68229828  .00000504  00000-0  49755-4 0  9992,2 52003  53.2169 227.0081 0002073  45.1361 314.9799 15.08838466 44447,6917.885,95.438,541.184,538.316,0.0
52003.0,STARLINK-3654,PAYLOAD,2022-12-27 00:19:25,15.08843972,0.0002115,53.2166,225.5215,46.1138,314.0029,0.00013803,1.909e-05,0.0,0 STARLINK-3654,1 52003U 22025AZ  22361.01349257  .00001909  00000-0  13803-3 0  9993,2 52003  53.2166 225.5215 0002115  46.1138 314.0029 15.08843972 46005,6917.868,95.437,541.196,538.27,0.0
52003.0,STARLINK-3654,PAYLOAD,2022-12-27 08:16:20,15.08851518,0.0002104,53.2166,224.0346,46.6935,313.4232,0.00014145,1.964e-05,0.0,0 STARLINK-3654,1 52003U 22025AZ  22361.34468620  .00001964  00000-0  14145-3 0  9996,2 52003  53.2166 224.0346 0002104  46.6935 313.4232 15.08851518 44543,6917.845,95.437,541.1659999999998,538.255,0.0
52003.0,STARLINK-3654,PAYLOAD,2022-12-27 14:37:53,15.08851278,0.000214,53.2167,222.8451,47.3675,312.7497,0.00019562,2.827e-05,0.0,0 STARLINK-3654,1 52003U 22025AZ  22361.60964430  .00002827  00000-0  19562-3 0  9992,2 52003  53.2167 222.8451 0002140  47.3675 312.7497 15.08851278 46096,6917.846,95.437,541.191,538.23,0.0
